BEIDOU-2 IGSO-1 (C06)   
1 36828U 10036A   23207.27602639 -.00000073  00000+0  00000+0 0  9995
2 36828  54.2375 172.5342 0036939 190.7836 148.9397  1.00265398 47605
BEIDOU-2 G4 (C04)       
1 37210U 10057A   23207.61285348 -.00000098  00000+0  00000+0 0  9993
2 37210   1.0898  58.7695 0004129 140.0574 125.8145  1.00270524 46690
BEIDOU-2 IGSO-2 (C07)   
1 37256U 10068A   23207.51939580 -.00000186  00000+0  00000+0 0  9996
2 37256  49.4805 284.7903 0031757 210.2233 101.6549  1.00296965 46198
BEIDOU-2 IGSO-3 (C08)   
1 37384U 11013A   23207.36487005 -.00000168  00000+0  00000+0 0  9992
2 37384  60.8783  50.2838 0027004 173.9270 317.4523  1.00292104 45066
BEIDOU-2 IGSO-4 (C09)   
1 37763U 11038A   23207.27146620  .00000026  00000+0  00000+0 0  9997
2 37763  54.5115 175.0708 0112032 228.5534  92.7294  1.00282453 44045
BEIDOU-2 IGSO-5 (C10)   
1 37948U 11073A   23207.05422220 -.00000145  00000+0  00000+0 0  9993
2 37948  49.6060 284.4622 0094108 219.6752 274.5077  1.00282299 42539
BEIDOU-2 G5 (C05)       
1 38091U 12008A   23207.03569818  .00000071  00000+0  00000+0 0  9992
2 38091   1.6149  67.6623 0000499 238.7857  68.5170  1.00271041 41767
BEIDOU-2 M3 (C11)       
1 38250U 12018A   23207.46358699 -.00000080  00000+0  00000+0 0  9991
2 38250  56.5338 340.1961 0021687 255.1946 104.5730  1.86231165 76264
BEIDOU-2 M4 (C12)       
1 38251U 12018B   23206.32128203 -.00000081  00000+0  00000+0 0  9993
2 38251  56.4457 339.5300 0012515 255.0193 104.8509  1.86231915 76246
BEIDOU-2 M6 (C14)       
1 38775U 12050B   23207.10525676 -.00000030  00000+0  00000+0 0  9996
2 38775  55.6608  98.1177 0013096 335.8711  24.1205  1.86231278 73622
BEIDOU-2 G6 (C02)       
1 38953U 12059A   23206.58066949 -.00000163  00000+0  00000+0 0  9994
2 38953   1.9265  82.2964 0009303 321.5599 192.2291  1.00273538 39303
BEIDOU-3S IGSO-1S (C31) 
1 40549U 15019A   23207.20737251 -.00000183  00000+0  00000+0 0  9990
2 40549  51.1739 308.0458 0040092 193.7190 332.4721  1.00265103 30477
BEIDOU-3S M2S (C57)     
1 40748U 15037A   23207.59832293 -.00000082  00000+0  00000+0 0  9993
2 40748  55.6866 338.1118 0009470 238.0908 121.8259  1.86233131 54449
BEIDOU-3S M1S (C58)     
1 40749U 15037B   23206.79446780 -.00000082  00000+0  00000+0 0  9997
2 40749  55.6901 338.1251 0002395 337.0712  22.9274  1.86232954 54439
BEIDOU-3S IGSO-2S (C56) 
1 40938U 15053A   23207.05624650 -.00000104  00000+0  00000+0 0  9994
2 40938  50.8701 271.2157 0047515 193.3772 313.2396  1.00292348 28754
BEIDOU-2 IGSO-6 (C13)   
1 41434U 16021A   23207.27364330 -.00000143  00000+0  00000+0 0  9995
2 41434  58.6910  48.6742 0046226 218.2921 230.1247  1.00290908 26885
BEIDOU-2 G7 (C03)       
1 41586U 16037A   23207.58680181 -.00000340  00000+0  00000+0 0  9998
2 41586   1.7771  67.8286 0007687 353.5669 204.2999  1.00265531 26197
BEIDOU-3 M1 (C19)       
1 43001U 17069A   23206.33469799 -.00000028  00000+0  00000+0 0  9993
2 43001  55.8117  98.1978 0009490 303.1274  56.8356  1.86231696 38906
BEIDOU-3 M2 (C20)       
1 43002U 17069B   23206.27133292 -.00000028  00000+0  00000+0 0  9993
2 43002  55.8113  98.2353 0007912 328.7896  31.2175  1.86231213 38890
BEIDOU-3 M7 (C27)       
1 43107U 18003A   23206.55932504 -.00000083  00000+0  00000+0 0  9993
2 43107  55.1429 338.8812 0004569  76.2556 283.8045  1.86232529 37650
BEIDOU-3 M8 (C28)       
1 43108U 18003B   23207.57099753 -.00000082  00000+0  00000+0 0  9996
2 43108  55.1353 338.8338 0002962 238.9629 121.0168  1.86230935 37684
BEIDOU-3 M4 (C22)       
1 43207U 18018A   23205.86574872 -.00000027  00000+0  00000+0 0  9991
2 43207  55.7703  98.3138 0005952 357.5649   2.4868  1.86231650 37030
BEIDOU-3 M3 (C21)       
1 43208U 18018B   23207.00627589 -.00000029  00000+0  00000+0 0  9996
2 43208  55.7705  98.2801 0007520 317.0074  42.9866  1.86231453 37055
BEIDOU-3 M9 (C29)       
1 43245U 18029A   23206.69236493 -.00000083  00000+0  00000+0 0  9993
2 43245  55.0390 336.6149 0000869 157.5899 202.4242  1.86232725 36204
BEIDOU-3 M10 (C30)      
1 43246U 18029B   23206.62247178 -.00000083  00000+0  00000+0 0  9999
2 43246  55.0359 336.6455 0003124  15.0473 344.9722  1.86232978 36185
BEIDOU-2 IGSO-7 (C16)   
1 43539U 18057A   23205.83361927 -.00000075  00000+0  00000+0 0  9997
2 43539  55.1221 172.2225 0064976 232.1111 308.9474  1.00296501 18532
BEIDOU-3 M5 (C23)       
1 43581U 18062A   23206.84298248  .00000110  00000+0  00000+0 0  9996
2 43581  54.1844 218.2944 0005809 273.4844  86.4885  1.86231966 33943
BEIDOU-3 M6 (C24)       
1 43582U 18062B   23207.24537449  .00000113  00000+0  00000+0 0  9994
2 43582  54.1842 218.2701 0004568 345.9722  14.0557  1.86229671 33958
BEIDOU-3 M12 (C26)      
1 43602U 18067A   23207.18206797  .00000114  00000+0  00000+0 0  9995
2 43602  54.2711 216.9234 0006618   8.9086 351.1414  1.86231673 33435
BEIDOU-3 M11 (C25)      
1 43603U 18067B   23207.31588140  .00000115  00000+0  00000+0 0  9997
2 43603  54.2685 216.8846 0003867 350.0734   9.9576  1.86231592 33468
BEIDOU-3 M13 (C32)      
1 43622U 18072A   23207.27438063 -.00000030  00000+0  00000+0 0  9994
2 43622  55.7407  97.8075 0006071 302.1162  57.8779  1.86231690 32972
BEIDOU-3 M14 (C33)      
1 43623U 18072B   23207.13983779 -.00000030  00000+0  00000+0 0  9999
2 43623  55.7423  97.8045 0004505 334.8781  25.1531  1.86231717 32960
BEIDOU-3 M16 (C35)      
1 43647U 18078A   23206.22731851 -.00000084  00000+0  00000+0 0  9991
2 43647  54.9349 336.7561 0006494  17.4325 342.5999  1.86227328 32450
BEIDOU-3 M15 (C34)      
1 43648U 18078B   23206.89598681 -.00000083  00000+0  00000+0 0  9996
2 43648  54.9303 336.7371 0003622  35.7403 324.2940  1.86232300 32482
BEIDOU-3 G1 (C59)       
1 43683U 18085A   23206.59182659 -.00000264  00000+0  00000+0 0  9995
2 43683   1.4270 127.3178 0003461 338.3446 190.4971  1.00271339 17458
BEIDOU-3 M17 (C36)      
1 43706U 18093A   23206.50745004  .00000107  00000+0  00000+0 0  9995
2 43706  54.2668 218.2201 0010855 276.4848  83.4299  1.86232095 31844
BEIDOU-3 M18 (C37)      
1 43707U 18093B   23207.44683789  .00000115  00000+0  00000+0 0  9990
2 43707  54.2675 218.1796 0008799 299.5180  60.4354  1.86229842 31854
BEIDOU-3 IGSO-1 (C38)   
1 44204U 19023A   23207.52116547 -.00000204  00000+0  00000+0 0  9999
2 44204  57.1569  48.6632 0022700 194.4869   6.3782  1.00294671 15743
BEIDOU-2 G8 (C01)       
1 44231U 19027A   23207.57233073 -.00000234  00000+0  00000+0 0  9995
2 44231   1.8553  81.2457 0005182 120.5711  92.7281  1.00274125 15487
BEIDOU-3 IGSO-2 (C39)   
1 44337U 19035A   23207.45780326 -.00000086  00000+0  00000+0 0  9991
2 44337  55.1541 168.1435 0033204 198.4998 220.8017  1.00287243 15072
BEIDOU-3 M24 (C46)      
1 44542U 19061A   23207.51887304  .00000116  00000+0  00000+0 0  9992
2 44542  54.4940 218.4071 0008114 332.9078  27.0916  1.86231402 26118
BEIDOU-3 M23 (C45)      
1 44543U 19061B   23206.96382413  .00000112  00000+0  00000+0 0  9998
2 44543  54.4925 218.3956 0005934 314.1343 305.5717  1.86231778 26105
BEIDOU-3 IGSO-3 (C40)   
1 44709U 19073A   23206.64223198 -.00000188  00000+0  00000+0 0  9998
2 44709  56.6006 292.1809 0034857 187.6133 172.4108  1.00294598 13854
BEIDOU-3 M22 (C44)      
1 44793U 19078A   23206.29011537 -.00000084  00000+0  00000+0 0  9994
2 44793  54.7835 336.7261 0005557  27.3025 332.7369  1.86232308 24945
BEIDOU-3 M21 (C43)      
1 44794U 19078B   23206.42078144 -.00000084  00000+0  00000+0 0  9997
2 44794  54.7572 336.7046 0003373  25.7096 334.3175  1.86232739 24951
BEIDOU-3 M19 (C41)      
1 44864U 19090A   23207.41701281 -.00000030  00000+0  00000+0 0  9995
2 44864  55.6751  97.9923 0016667 278.2269 223.6184  1.86231900 24550
BEIDOU-3 M20 (C42)      
1 44865U 19090B   23207.38712625 -.00000030  00000+0  00000+0 0  9996
2 44865  55.6768  98.0260 0014773 292.6469 278.9533  1.86231850 24536
BEIDOU-3 G2 (C60)       
1 45344U 20017A   23206.58146324 -.00000128  00000+0  00000+0 0  9996
2 45344   2.0257  14.0300 0003319 123.2244  95.1423  1.00271352 12659
BEIDOU-3 G3 (C61)       
1 45807U 20040A   23206.89723905 -.00000338  00000+0  00000+0 0  9999
2 45807   0.6573 335.8757 0005271  16.5016  24.4887  1.00271946 11475
BEIDOU-3 G4             
1 56564U 23066A   23207.58227958 -.00000094  00000+0  00000+0 0  9995
2 56564   2.9436 288.9936 0007353 198.6410 185.9621  1.00270659   804
